start=new Date('2023-02-25T00:00:00.000Z').valueOf();
sats=[{"RCS_SIZE":"LARGE","MEAN_ELEMENT_THEORY":"SGP4","APOAPSIS":"540.500","EPHEMERIS_TYPE":"0","REV_AT_EPOCH":"6795","MEAN_MOTION_DOT":"0.00018834","MEAN_MOTION":"15.08854138","PERIAPSIS":"538.905","INCLINATION":"53.2157","LAUNCH_DATE":"2021-12-02","DECAY_DATE":null,"CLASSIFICATION_TYPE":"U","NORAD_CAT_ID":"49732","OBJECT_NAME":"STARLINK-3246","ECCENTRICITY":"0.00011530","GP_ID":"226778839","RA_OF_ASC_NODE":"98.0278","FILE":"3835059","ELEMENT_SET_NO":"999","ARG_OF_PERICENTER":"92.4110","SEMIMAJOR_AXIS":"6917.837","TLE_LINE1":"1 49732U 21115J   23055.59828663  .00018834  00000-0  11978-2 0  9999","PERIOD":"95.437","TLE_LINE2":"2 49732  53.2157  98.0278 0001153  92.4110 267.7014 15.08854138 67958","BSTAR":"0.00119780000000","REF_FRAME":"TEME","MEAN_MOTION_DDOT":"0.0000000000000","TIME_SYSTEM":"UTC","SITE":"AFETR","EPOCH":"2023-02-24T14:21:31.964832","COUNTRY_CODE":"US","CENTER_NAME":"EARTH","OBJECT_ID":"2021-115J","MEAN_ANOMALY":"267.7014","OBJECT_TYPE":"PAYLOAD"},{"CENTER_NAME":"EARTH","OBJECT_ID":"2021-115K","MEAN_ANOMALY":"262.8755","OBJECT_TYPE":"PAYLOAD","MEAN_MOTION_DDOT":"0.0000000000000","REF_FRAME":"TEME","TIME_SYSTEM":"UTC","COUNTRY_CODE":"US","EPOCH":"2023-02-24T14:10:55.637472","SITE":"AFETR","FILE":"3835059","ARG_OF_PERICENTER":"97.2394","ELEMENT_SET_NO":"999","ECCENTRICITY":"0.00013780","GP_ID":"226778589","OBJECT_NAME":"STARLINK-3252","RA_OF_ASC_NODE":"98.0571","TLE_LINE2":"2 49733  53.2153  98.0571 0001378  97.2394 262.8755 15.08858055 67957","BSTAR":"0.00095329000000","TLE_LINE1":"1 49733U 21115K   23055.59092173  .00014924  00000-0  95329-3 0  9998","SEMIMAJOR_AXIS":"6917.825","PERIOD":"95.436","MEAN_MOTION":"15.08858055","MEAN_MOTION_DOT":"0.00014924","LAUNCH_DATE":"2021-12-02","PERIAPSIS":"538.737","INCLINATION":"53.2153","RCS_SIZE":"LARGE","MEAN_ELEMENT_THEORY":"SGP4","REV_AT_EPOCH":"6795","EPHEMERIS_TYPE":"0","APOAPSIS":"540.643","NORAD_CAT_ID":"49733","CLASSIFICATION_TYPE":"U","DECAY_DATE":null},{"COUNTRY_CODE":"US","EPOCH":"2023-02-24T19:24:55.252512","SITE":"AFETR","MEAN_MOTION_DDOT":"0.0000000000000","REF_FRAME":"TEME","TIME_SYSTEM":"UTC","MEAN_ANOMALY":"276.5041","OBJECT_TYPE":"PAYLOAD","CENTER_NAME":"EARTH","OBJECT_ID":"2021-115L","NORAD_CAT_ID":"49734","CLASSIFICATION_TYPE":"U","DECAY_DATE":null,"MEAN_MOTION":"15.08836217","MEAN_MOTION_DOT":"0.00000113","LAUNCH_DATE":"2021-12-02","PERIAPSIS":"538.907","INCLINATION":"53.2176","RCS_SIZE":"LARGE","MEAN_ELEMENT_THEORY":"SGP4","REV_AT_EPOCH":"6813","EPHEMERIS_TYPE":"0","APOAPSIS":"540.606","BSTAR":"0.00002520500000","TLE_LINE2":"2 49734  53.2176  87.1038 0001228  83.6091 276.5041 15.08836217 68134","TLE_LINE1":"1 49734U 21115L   23055.80897283  .00000113  00000-0  25205-4 0  9990","SEMIMAJOR_AXIS":"6917.892","PERIOD":"95.438","FILE":"3835059","ARG_OF_PERICENTER":"83.6091","ELEMENT_SET_NO":"999","GP_ID":"226777342","ECCENTRICITY":"0.00012280","OBJECT_NAME":"STARLINK-3238","RA_OF_ASC_NODE":"87.1038"},{"PERIOD":"95.436","SEMIMAJOR_AXIS":"6917.803","TLE_LINE1":"1 49735U 21115M   23055.59459991  .00015604  00000-0  99561-3 0  9993","TLE_LINE2":"2 49735  53.2157  98.0430 0000997  87.9661 272.1446 15.08865289 67954","BSTAR":"0.00099561000000","RA_OF_ASC_NODE":"98.0430","OBJECT_NAME":"STARLINK-3113","GP_ID":"226777591","ECCENTRICITY":"0.00009970","ELEMENT_SET_NO":"999","ARG_OF_PERICENTER":"87.9661","FILE":"3835059","DECAY_DATE":null,"CLASSIFICATION_TYPE":"U","NORAD_CAT_ID":"49735","APOAPSIS":"540.358","REV_AT_EPOCH":"6795","EPHEMERIS_TYPE":"0","RCS_SIZE":"LARGE","MEAN_ELEMENT_THEORY":"SGP4","PERIAPSIS":"538.978","INCLINATION":"53.2157","LAUNCH_DATE":"2021-12-02","MEAN_MOTION_DOT":"0.00015604","MEAN_MOTION":"15.08865289","OBJECT_TYPE":"PAYLOAD","MEAN_ANOMALY":"272.1446","OBJECT_ID":"2021-115M","CENTER_NAME":"EARTH","SITE":"AFETR","EPOCH":"2023-02-24T14:16:13.432224","COUNTRY_CODE":"US","TIME_SYSTEM":"UTC","MEAN_MOTION_DDOT":"0.0000000000000","REF_FRAME":"TEME"},{"TLE_LINE1":"1 49736U 21115N   23055.94977767  .00001197  00000-0  93276-4 0  9999","SEMIMAJOR_AXIS":"6917.893","PERIOD":"95.438","TLE_LINE2":"2 49736  53.2157  86.4559 0001068  78.2366 281.8746 15.08836002 69260","BSTAR":"0.00009327600000","GP_ID":"226749701","ECCENTRICITY":"0.00010680","OBJECT_NAME":"STARLINK-3148","RA_OF_ASC_NODE":"86.4559","FILE":"3834846","ARG_OF_PERICENTER":"78.2366","ELEMENT_SET_NO":"999","DECAY_DATE":null,"NORAD_CAT_ID":"49736","CLASSIFICATION_TYPE":"U","MEAN_ELEMENT_THEORY":"SGP4","RCS_SIZE":"LARGE","EPHEMERIS_TYPE":"0","REV_AT_EPOCH":"6926","APOAPSIS":"540.496","MEAN_MOTION":"15.08836002","MEAN_MOTION_DOT":"0.00001197","LAUNCH_DATE":"2021-12-02","INCLINATION":"53.2157","PERIAPSIS":"539.019","MEAN_ANOMALY":"281.8746","OBJECT_TYPE":"PAYLOAD","CENTER_NAME":"EARTH","OBJECT_ID":"2021-115N","SITE":"AFETR","COUNTRY_CODE":"US","EPOCH":"2023-02-24T22:47:40.790688","REF_FRAME":"TEME","MEAN_MOTION_DDOT":"0.0000000000000","TIME_SYSTEM":"UTC"},{"OBJECT_TYPE":"PAYLOAD","MEAN_ANOMALY":"272.3288","OBJECT_ID":"2021-115P","CENTER_NAME":"EARTH","SITE":"AFETR","COUNTRY_CODE":"US","EPOCH":"2023-02-24T19:30:12.968640","TIME_SYSTEM":"UTC","REF_FRAME":"TEME","MEAN_MOTION_DDOT":"0.0000000000000","PERIOD":"95.437","TLE_LINE1":"1 49737U 21115P   23055.81265010  .00017349  00000-0  11053-2 0  9994","SEMIMAJOR_AXIS":"6917.866","TLE_LINE2":"2 49737  53.2142  87.0604 0001665  87.7895 272.3288 15.08844849 68137","BSTAR":"0.00110530000000","RA_OF_ASC_NODE":"87.0604","GP_ID":"226779089","ECCENTRICITY":"0.00016650","OBJECT_NAME":"STARLINK-3225","ELEMENT_SET_NO":"999","ARG_OF_PERICENTER":"87.7895","FILE":"3835059","DECAY_DATE":null,"NORAD_CAT_ID":"49737","CLASSIFICATION_TYPE":"U","REV_AT_EPOCH":"6813","EPHEMERIS_TYPE":"0","APOAPSIS":"540.882","RCS_SIZE":"LARGE","MEAN_ELEMENT_THEORY":"SGP4","LAUNCH_DATE":"2021-12-02","INCLINATION":"53.2142","PERIAPSIS":"538.579","MEAN_MOTION":"15.08844849","MEAN_MOTION_DOT":"0.00017349"},{"TIME_SYSTEM":"UTC","REF_FRAME":"TEME","MEAN_MOTION_DDOT":"0.0000000000000","SITE":"AFETR","EPOCH":"2023-02-24T22:51:35.143776","COUNTRY_CODE":"US","OBJECT_ID":"2021-115Q","CENTER_NAME":"EARTH","OBJECT_TYPE":"PAYLOAD","MEAN_ANOMALY":"261.6216","APOAPSIS":"540.653","EPHEMERIS_TYPE":"0","REV_AT_EPOCH":"6926","MEAN_ELEMENT_THEORY":"SGP4","RCS_SIZE":"LARGE","INCLINATION":"53.2164","PERIAPSIS":"538.896","LAUNCH_DATE":"2021-12-02","MEAN_MOTION_DOT":"0.00001303","MEAN_MOTION":"15.08830518","DECAY_DATE":null,"CLASSIFICATION_TYPE":"U","NORAD_CAT_ID":"49738","RA_OF_ASC_NODE":"86.4318","OBJECT_NAME":"STARLINK-3143","ECCENTRICITY":"0.00012700","GP_ID":"226746498","ARG_OF_PERICENTER":"98.4921","ELEMENT_SET_NO":"999","FILE":"3834701","PERIOD":"95.438","SEMIMAJOR_AXIS":"6917.909","TLE_LINE1":"1 49738U 21115Q   23055.95249009  .00001303  00000-0  99966-4 0  9994","TLE_LINE2":"2 49738  53.2164  86.4318 0001270  98.4921 261.6216 15.08830518 69263","BSTAR":"0.00009996600000"},{"PERIOD":"95.438","SEMIMAJOR_AXIS":"6917.923","TLE_LINE1":"1 49739U 21115R   23055.80069148 -.00003791  00000-0 -22029-3 0  9993","TLE_LINE2":"2 49739  53.2154  97.1136 0001279  94.0322 266.0816 15.08825902 67989","BSTAR":"-0.00022029000000","RA_OF_ASC_NODE":"97.1136","OBJECT_NAME":"STARLINK-3155","ECCENTRICITY":"0.00012790","GP_ID":"226778091","ELEMENT_SET_NO":"999","ARG_OF_PERICENTER":"94.0322","FILE":"3835059","DECAY_DATE":null,"CLASSIFICATION_TYPE":"U","NORAD_CAT_ID":"49739","APOAPSIS":"540.673","REV_AT_EPOCH":"6798","EPHEMERIS_TYPE":"0","RCS_SIZE":"LARGE","MEAN_ELEMENT_THEORY":"SGP4","PERIAPSIS":"538.904","INCLINATION":"53.2154","LAUNCH_DATE":"2021-12-02","MEAN_MOTION_DOT":"-0.00003791","MEAN_MOTION":"15.08825902","OBJECT_TYPE":"PAYLOAD","MEAN_ANOMALY":"266.0816","OBJECT_ID":"2021-115R","CENTER_NAME":"EARTH","SITE":"AFETR","EPOCH":"2023-02-24T19:12:59.743872","COUNTRY_CODE":"US","TIME_SYSTEM":"UTC","MEAN_MOTION_DDOT":"0.0000000000000","REF_FRAME":"TEME"},{"ELEMENT_SET_NO":"999","ARG_OF_PERICENTER":"116.3222","FILE":"3832867","RA_OF_ASC_NODE":"89.3528","GP_ID":"226705664","ECCENTRICITY":"0.00012290","OBJECT_NAME":"STARLINK-3226","BSTAR":"0.00024767000000","TLE_LINE2":"2 49740  53.2152  89.3528 0001229 116.3222 243.7896 15.08847882 68059","PERIOD":"95.437","TLE_LINE1":"1 49740U 21115S   23055.30112312  .00003657  00000-0  24767-3 0  9992","SEMIMAJOR_AXIS":"6917.856","LAUNCH_DATE":"2021-12-02","INCLINATION":"53.2152","PERIAPSIS":"538.871","MEAN_MOTION":"15.08847882","MEAN_MOTION_DOT":"0.00003657","REV_AT_EPOCH":"6805","EPHEMERIS_TYPE":"0","APOAPSIS":"540.572","MEAN_ELEMENT_THEORY":"SGP4","RCS_SIZE":"LARGE","NORAD_CAT_ID":"49740","CLASSIFICATION_TYPE":"U","DECAY_DATE":null,"OBJECT_ID":"2021-115S","CENTER_NAME":"EARTH","OBJECT_TYPE":"PAYLOAD","MEAN_ANOMALY":"243.7896","TIME_SYSTEM":"UTC","REF_FRAME":"TEME","MEAN_MOTION_DDOT":"0.0000000000000","COUNTRY_CODE":"US","EPOCH":"2023-02-24T07:13:37.037568","SITE":"AFETR"},{"EPOCH":"2023-02-24T13:24:33.824448","COUNTRY_CODE":"US","SITE":"AFETR","REF_FRAME":"TEME","MEAN_MOTION_DDOT":"0.0000000000000","TIME_SYSTEM":"UTC","MEAN_ANOMALY":"261.7401","OBJECT_TYPE":"PAYLOAD","CENTER_NAME":"EARTH","OBJECT_ID":"2021-115T","CLASSIFICATION_TYPE":"U","NORAD_CAT_ID":"49741","DECAY_DATE":null,"MEAN_MOTION_DOT":"0.00012213","MEAN_MOTION":"15.08857726","INCLINATION":"53.2160","PERIAPSIS":"538.766","LAUNCH_DATE":"2021-12-02","MEAN_ELEMENT_THEORY":"SGP4","RCS_SIZE":"LARGE","APOAPSIS":"540.616","EPHEMERIS_TYPE":"0","REV_AT_EPOCH":"6809","BSTAR":"0.00078374000000","TLE_LINE2":"2 49741  53.2160  88.2022 0001337  98.3743 261.7401 15.08857726 68097","SEMIMAJOR_AXIS":"6917.826","TLE_LINE1":"1 49741U 21115T   23055.55872482  .00012213  00000-0  78374-3 0  9992","PERIOD":"95.436","FILE":"3835059","ELEMENT_SET_NO":"999","ARG_OF_PERICENTER":"98.3743","OBJECT_NAME":"STARLINK-3244","ECCENTRICITY":"0.00013370","GP_ID":"226778590","RA_OF_ASC_NODE":"88.2022"}];
